{
  "type": "FeatureCollection",
  "features": [
    {
      "type": "Feature",
      "properties": {
        "norad_id": 41866,
        "name": "GOES 16",
        "group": "weather",
        "lat": -0.031386056315410665,
        "lon": 50.62379571189692,
        "alt_km": 35798.311393753946,
        "timestamp": "2025-12-11T05:00:25.954660+00:00",
        "meta_object_name": "GOES 16",
        "meta_object_id": "2016-071A",
        "meta_epoch": "2025-12-10T19:53:24.597024",
        "meta_mean_motion": 1.00271315,
        "meta_eccentricity": 0.00033358,
        "meta_inclination": 0.0654,
        "meta_ra_of_asc_node": 104.0037,
        "meta_arg_of_pericenter": 157.7169,
        "meta_mean_anomaly": 11.7576,
        "meta_ephemeris_type": 0,
        "meta_classification_type": "U",
        "meta_norad_cat_id": 41866,
        "meta_element_set_no": 999,
        "meta_rev_at_epoch": 3321,
        "meta_bstar": 0,
        "meta_mean_motion_dot": -8.6e-07,
        "meta_mean_motion_ddot": 0,
        "tle_line1": "1 41866U 16071A   25344.82875691 -.00000086  00000+0  00000+0 0  9997",
        "tle_line2": "2 41866   0.0654 104.0037 0003335 157.7169  11.7576  1.00271315 33213"
      },
      "geometry": {
        "type": "Point",
        "coordinates": [
          50.62379571189692,
          -0.031386056315410665
        ]
      }
    },
    {
      "type": "Feature",
      "properties": {
        "norad_id": 41882,
        "name": "FENGYUN 4A",
        "group": "weather",
        "lat": -0.5491124103799948,
        "lon": -80.84705557399809,
        "alt_km": 35773.29532220897,
        "timestamp": "2025-12-11T05:00:25.954672+00:00",
        "meta_object_name": "FENGYUN 4A",
        "meta_object_id": "2016-077A",
        "meta_epoch": "2025-12-10T20:58:33.357216",
        "meta_mean_motion": 1.00270494,
        "meta_eccentricity": 0.00049619,
        "meta_inclination": 1.8446,
        "meta_ra_of_asc_node": 82.4004,
        "meta_arg_of_pericenter": 145.8302,
        "meta_mean_anomaly": 290.0903,
        "meta_ephemeris_type": 0,
        "meta_classification_type": "U",
        "meta_norad_cat_id": 41882,
        "meta_element_set_no": 999,
        "meta_rev_at_epoch": 3304,
        "meta_bstar": 0,
        "meta_mean_motion_dot": -3.52e-06,
        "meta_mean_motion_ddot": 0,
        "tle_line1": "1 41882U 16077A   25344.87399719 -.00000352  00000+0  00000+0 0  9994",
        "tle_line2": "2 41882   1.8446  82.4004 0004961 145.8302 290.0903  1.00270494 33049"
      },
      "geometry": {
        "type": "Point",
        "coordinates": [
          -80.84705557399809,
          -0.5491124103799948
        ]
      }
    },
    {
      "type": "Feature",
      "properties": {
        "norad_id": 41884,
        "name": "CYGFM05",
        "group": "weather",
        "lat": 34.598955972295684,
        "lon": 156.25592728065044,
        "alt_km": 415.44250368280973,
        "timestamp": "2025-12-11T05:00:25.954683+00:00",
        "meta_object_name": "CYGFM05",
        "meta_object_id": "2016-078A",
        "meta_epoch": "2025-12-10T14:39:13.190112",
        "meta_mean_motion": 15.47511355,
        "meta_eccentricity": 0.0009831,
        "meta_inclination": 34.9599,
        "meta_ra_of_asc_node": 61.038,
        "meta_arg_of_pericenter": 163.8231,
        "meta_mean_anomaly": 196.2806,
        "meta_ephemeris_type": 0,
        "meta_classification_type": "U",
        "meta_norad_cat_id": 41884,
        "meta_element_set_no": 999,
        "meta_rev_at_epoch": 49943,
        "meta_bstar": 0.00053014,
        "meta_mean_motion_dot": 0.00028182,
        "meta_mean_motion_ddot": 0,
        "tle_line1": "1 41884U 16078A   25344.61056933  .00028182  00000+0  53014-3 0  9994",
        "tle_line2": "2 41884  34.9599  61.0380 0009831 163.8231 196.2806 15.47511355499437"
      },
      "geometry": {
        "type": "Point",
        "coordinates": [
          156.25592728065044,
          34.598955972295684
        ]
      }
    },
    {
      "type": "Feature",
      "properties": {
        "norad_id": 41885,
        "name": "CYGFM04",
        "group": "weather",
        "lat": -20.663115993176383,
        "lon": -0.7501330840933649,
        "alt_km": 420.6932596786264,
        "timestamp": "2025-12-11T05:00:25.954693+00:00",
        "meta_object_name": "CYGFM04",
        "meta_object_id": "2016-078B",
        "meta_epoch": "2025-12-10T19:53:51.856224",
        "meta_mean_motion": 15.50228881,
        "meta_eccentricity": 0.00092662,
        "meta_inclination": 34.9355,
        "meta_ra_of_asc_node": 34.4424,
        "meta_arg_of_pericenter": 193.6147,
        "meta_mean_anomaly": 166.4326,
        "meta_ephemeris_type": 0,
        "meta_classification_type": "U",
        "meta_norad_cat_id": 41885,
        "meta_element_set_no": 999,
        "meta_rev_at_epoch": 49964,
        "meta_bstar": 0.00053049655,
        "meta_mean_motion_dot": 0.00031045,
        "meta_mean_motion_ddot": 0,
        "tle_line1": "1 41885U 16078B   25344.82907241  .00031045  00000+0  53050-3 0  9997",
        "tle_line2": "2 41885  34.9355  34.4424 0009266 193.6147 166.4326 15.50228881499642"
      },
      "geometry": {
        "type": "Point",
        "coordinates": [
          -0.7501330840933649,
          -20.663115993176383
        ]
      }
    },
    {
      "type": "Feature",
      "properties": {
        "norad_id": 41886,
        "name": "CYGFM02",
        "group": "weather",
        "lat": -17.983024720792915,
        "lon": 2.5979876335164294,
        "alt_km": 417.6865963328937,
        "timestamp": "2025-12-11T05:00:25.954704+00:00",
        "meta_object_name": "CYGFM02",
        "meta_object_id": "2016-078C",
        "meta_epoch": "2025-12-10T19:52:57.076896",
        "meta_mean_motion": 15.51599098,
        "meta_eccentricity": 0.00109059,
        "meta_inclination": 34.9444,
        "meta_ra_of_asc_node": 32.7978,
        "meta_arg_of_pericenter": 193.1509,
        "meta_mean_anomaly": 166.8931,
        "meta_ephemeris_type": 0,
        "meta_classification_type": "U",
        "meta_norad_cat_id": 41886,
        "meta_element_set_no": 999,
        "meta_rev_at_epoch": 49977,
        "meta_bstar": 0.00052443783,
        "meta_mean_motion_dot": 0.0003226,
        "meta_mean_motion_ddot": 0,
        "tle_line1": "1 41886U 16078C   25344.82843839  .00032260  00000+0  52444-3 0  9996",
        "tle_line2": "2 41886  34.9444  32.7978 0010905 193.1509 166.8931 15.51599098499778"
      },
      "geometry": {
        "type": "Point",
        "coordinates": [
          2.5979876335164294,
          -17.983024720792915
        ]
      }
    },
    {
      "type": "Feature",
      "properties": {
        "norad_id": 41887,
        "name": "CYGFM01",
        "group": "weather",
        "lat": 22.240898877479633,
        "lon": -156.3573111687151,
        "alt_km": 411.92325810343664,
        "timestamp": "2025-12-11T05:00:25.954715+00:00",
        "meta_object_name": "CYGFM01",
        "meta_object_id": "2016-078D",
        "meta_epoch": "2025-12-10T22:13:16.222080",
        "meta_mean_motion": 15.48103632,
        "meta_eccentricity": 0.00094243,
        "meta_inclination": 34.9432,
        "meta_ra_of_asc_node": 61.3408,
        "meta_arg_of_pericenter": 158.7693,
        "meta_mean_anomaly": 201.3421,
        "meta_ephemeris_type": 0,
        "meta_classification_type": "U",
        "meta_norad_cat_id": 41887,
        "meta_element_set_no": 999,
        "meta_rev_at_epoch": 49942,
        "meta_bstar": 0.00053215326,
        "meta_mean_motion_dot": 0.00028881,
        "meta_mean_motion_ddot": 0,
        "tle_line1": "1 41887U 16078D   25344.92588220  .00028881  00000+0  53215-3 0  9999",
        "tle_line2": "2 41887  34.9432  61.3408 0009424 158.7693 201.3421 15.48103632499429"
      },
      "geometry": {
        "type": "Point",
        "coordinates": [
          -156.3573111687151,
          22.240898877479633
        ]
      }
    },
    {
      "type": "Feature",
      "properties": {
        "norad_id": 41888,
        "name": "CYGFM08",
        "group": "weather",
        "lat": -0.23497725725131355,
        "lon": -137.16139407012272,
        "alt_km": 409.96670106621514,
        "timestamp": "2025-12-11T05:00:25.954729+00:00",
        "meta_object_name": "CYGFM08",
        "meta_object_id": "2016-078E",
        "meta_epoch": "2025-12-10T20:30:01.570176",
        "meta_mean_motion": 15.49298183,
        "meta_eccentricity": 0.001134,
        "meta_inclination": 34.9464,
        "meta_ra_of_asc_node": 44.8236,
        "meta_arg_of_pericenter": 182.0254,
        "meta_mean_anomaly": 178.0423,
        "meta_ephemeris_type": 0,
        "meta_classification_type": "U",
        "meta_norad_cat_id": 41888,
        "meta_element_set_no": 999,
        "meta_rev_at_epoch": 49964,
        "meta_bstar": 0.00051397011,
        "meta_mean_motion_dot": 0.00029116,
        "meta_mean_motion_ddot": 0,
        "tle_line1": "1 41888U 16078E   25344.85418484  .00029116  00000+0  51397-3 0  9997",
        "tle_line2": "2 41888  34.9464  44.8236 0011340 182.0254 178.0423 15.49298183499646"
      },
      "geometry": {
        "type": "Point",
        "coordinates": [
          -137.16139407012272,
          -0.23497725725131355
        ]
      }
    }
  ]
}